[{"OBJECT_NAME":"STARLINK-31235","OBJECT_ID":"2024-038R","EPOCH":"2026-03-09T22:00:24.832512","MEAN_MOTION":15.27580795,"ECCENTRICITY":0.00014854,"INCLINATION":43.0064,"RA_OF_ASC_NODE":22.2255,"ARG_OF_PERICENTER":278.0699,"MEAN_ANOMALY":81.9984,"EPHEMERIS_TYPE":0,"CLASSIFICATION_TYPE":"U","NORAD_CAT_ID":59038,"ELEMENT_SET_NO":999,"REV_AT_EPOCH":11483,"BSTAR":-9.559771e-5,"MEAN_MOTION_DOT":-2.892e-5,"MEAN_MOTION_DDOT":0},{"OBJECT_NAME":"LIME","OBJECT_ID":"2025-009AR","EPOCH":"2026-03-09T17:44:15.459648","MEAN_MOTION":15.28703313,"ECCENTRICITY":0.00016347,"INCLINATION":97.3985,"RA_OF_ASC_NODE":151.4831,"ARG_OF_PERICENTER":35.9029,"MEAN_ANOMALY":324.232,"EPHEMERIS_TYPE":0,"CLASSIFICATION_TYPE":"U","NORAD_CAT_ID":62648,"ELEMENT_SET_NO":999,"REV_AT_EPOCH":6376,"BSTAR":0.00047722827,"MEAN_MOTION_DOT":0.00013254,"MEAN_MOTION_DDOT":0}]
